{"type": "FeatureCollection", "features": [ {"type": "Feature", "properties": {"norad_id": 37336, "name": "COSMOS 2251 DEB", "group": "cosmos-2251-debris", "lat": 18.464061677726757, "lon": 157.4671141074357, "alt_km": 785.1118633248789, "timestamp": "2025-12-06T07:31:40.633450+00:00", "meta": {"OBJECT_NAME": "COSMOS 2251 DEB", "OBJECT_ID": "1993-036BLC", "EPOCH": "2025-12-01T07:48:14.136768", "MEAN_MOTION": 14.32750931, "ECCENTRICITY": 0.00286304, "INCLINATION": 74.0414, "RA_OF_ASC_NODE": 352.0528, "ARG_OF_PERICENTER": 73.4193, "MEAN_ANOMALY": 287.0099, "EPHEMERIS_TYPE": 0, "CLASSIFICATION_TYPE": "U", "NORAD_CAT_ID": 37336, "ELEMENT_SET_NO": 999, "REV_AT_EPOCH": 64956, "BSTAR": 8.422431e-05, "MEAN_MOTION_DOT": 2.05e-06, "MEAN_MOTION_DDOT": 0}, "tle": {"line1": "1 37336U 93036BLC 25335.32516362  .00000205  00000+0  84224-4 0  9999", "line2": "2 37336  74.0414 352.0528 0028630  73.4193 287.0099 14.32750931649565"}}, "geometry": {"type": "Point", "coordinates": [157.4671141074357, 18.464061677726757]}}, {"type": "Feature", "properties": {"norad_id": 37340, "name": "COSMOS 2251 DEB", "group": "cosmos-2251-debris", "lat": -68.7908617986992, "lon": -118.59971784550268, "alt_km": 778.093183406957, "timestamp": "2025-12-06T07:31:40.633460+00:00", "meta": {"OBJECT_NAME": "COSMOS 2251 DEB", "OBJECT_ID": "1993-036BLG", "EPOCH": "2025-12-05T05:08:42.934848", "MEAN_MOTION": 14.36908075, "ECCENTRICITY": 0.00174259, "INCLINATION": 74.0249, "RA_OF_ASC_NODE": 290.9993, "ARG_OF_PERICENTER": 27.9023, "MEAN_ANOMALY": 332.3061, "EPHEMERIS_TYPE": 0, "CLASSIFICATION_TYPE": "U", "NORAD_CAT_ID": 37340, "ELEMENT_SET_NO": 999, "REV_AT_EPOCH": 83959, "BSTAR": 0.00037521661, "MEAN_MOTION_DOT": 1.086e-05, "MEAN_MOTION_DDOT": 0}, "tle": {"line1": "1 37340U 93036BLG 25339.21438582  .00001086  00000+0  37522-3 0  9999", "line2": "2 37340  74.0249 290.9993 0017425  27.9023 332.3061 14.36908075839593"}}, "geometry": {"type": "Point", "coordinates": [-118.59971784550268, -68.7908617986992]}}, {"type": "Feature", "properties": {"norad_id": 37483, "name": "COSMOS 2251 DEB", "group": "cosmos-2251-debris", "lat": -58.74059650728702, "lon": 3.5893090304551327, "alt_km": 786.694676013517, "timestamp": "2025-12-06T07:31:40.633470+00:00", "meta": {"OBJECT_NAME": "COSMOS 2251 DEB", "OBJECT_ID": "1993-036BLL", "EPOCH": "2025-12-02T19:14:27.105504", "MEAN_MOTION": 14.43532369, "ECCENTRICITY": 0.00926542, "INCLINATION": 73.9725, "RA_OF_ASC_NODE": 161.8757, "ARG_OF_PERICENTER": 10.6514, "MEAN_ANOMALY": 349.6575, "EPHEMERIS_TYPE": 0, "CLASSIFICATION_TYPE": "U", "NORAD_CAT_ID": 37483, "ELEMENT_SET_NO": 999, "REV_AT_EPOCH": 65136, "BSTAR": 0.00025341126, "MEAN_MOTION_DOT": 8.75e-06, "MEAN_MOTION_DDOT": 0}, "tle": {"line1": "1 37483U 93036BLL 25336.80170261  .00000875  00000+0  25341-3 0  9997", "line2": "2 37483  73.9725 161.8757 0092654  10.6514 349.6575 14.43532369651368"}}, "geometry": {"type": "Point", "coordinates": [3.5893090304551327, -58.74059650728702]}}, {"type": "Feature", "properties": {"norad_id": 37484, "name": "COSMOS 2251 DEB", "group": "cosmos-2251-debris", "lat": 6.505339682367253, "lon": 38.6083927247569, "alt_km": 750.8988603272546, "timestamp": "2025-12-06T07:31:40.633480+00:00", "meta": {"OBJECT_NAME": "COSMOS 2251 DEB", "OBJECT_ID": "1993-036BLM", "EPOCH": "2025-12-03T09:20:46.078080", "MEAN_MOTION": 14.41715463, "ECCENTRICITY": 0.00402033, "INCLINATION": 73.8249, "RA_OF_ASC_NODE": 225.9911, "ARG_OF_PERICENTER": 262.1785, "MEAN_ANOMALY": 219.995, "EPHEMERIS_TYPE": 0, "CLASSIFICATION_TYPE": "U", "NORAD_CAT_ID": 37484, "ELEMENT_SET_NO": 999, "REV_AT_EPOCH": 65244, "BSTAR": 0.0010111713, "MEAN_MOTION_DOT": 3.303e-05, "MEAN_MOTION_DDOT": 0}, "tle": {"line1": "1 37484U 93036BLM 25337.38942220  .00003303  00000+0  10112-2 0  9992", "line2": "2 37484  73.8249 225.9911 0040203 262.1785 219.9950 14.41715463652442"}}, "geometry": {"type": "Point", "coordinates": [38.6083927247569, 6.505339682367253]}}, {"type": "Feature", "properties": {"norad_id": 37486, "name": "COSMOS 2251 DEB", "group": "cosmos-2251-debris", "lat": 10.93657187615285, "lon": 129.46100325279826, "alt_km": 690.1068033889132, "timestamp": "2025-12-06T07:31:40.633491+00:00", "meta": {"OBJECT_NAME": "COSMOS 2251 DEB", "OBJECT_ID": "1993-036BLP", "EPOCH": "2025-12-02T16:54:10.956672", "MEAN_MOTION": 14.13188429, "ECCENTRICITY": 0.0228993, "INCLINATION": 73.688, "RA_OF_ASC_NODE": 132.7403, "ARG_OF_PERICENTER": 2.4987, "MEAN_ANOMALY": 12.5088, "EPHEMERIS_TYPE": 0, "CLASSIFICATION_TYPE": "U", "NORAD_CAT_ID": 37486, "ELEMENT_SET_NO": 999, "REV_AT_EPOCH": 63228, "BSTAR": 0.0021348416, "MEAN_MOTION_DOT": 5.104e-05, "MEAN_MOTION_DDOT": 0}, "tle": {"line1": "1 37486U 93036BLP 25336.70429348  .00005104  00000+0  21348-2 0  9994", "line2": "2 37486  73.6880 132.7403 0228993   2.4987  12.5088 14.13188429632281"}}, "geometry": {"type": "Point", "coordinates": [129.46100325279826, 10.93657187615285]}}, {"type": "Feature", "properties": {"norad_id": 37487, "name": "COSMOS 2251 DEB", "group": "cosmos-2251-debris", "lat": -16.25729713109132, "lon": -159.96542809105136, "alt_km": 623.2091307192286, "timestamp": "2025-12-06T07:31:40.633501+00:00", "meta": {"OBJECT_NAME": "COSMOS 2251 DEB", "OBJECT_ID": "1993-036BLQ", "EPOCH": "2025-12-03T22:50:37.663584", "MEAN_MOTION": 14.80409078, "ECCENTRICITY": 0.0025242, "INCLINATION": 73.9029, "RA_OF_ASC_NODE": 209.5569, "ARG_OF_PERICENTER": 49.3144, "MEAN_ANOMALY": 311.022, "EPHEMERIS_TYPE": 0, "CLASSIFICATION_TYPE": "U", "NORAD_CAT_ID": 37487, "ELEMENT_SET_NO": 999, "REV_AT_EPOCH": 81115, "BSTAR": 0.0061344, "MEAN_MOTION_DOT": 0.00047415, "MEAN_MOTION_DDOT": 0}, "tle": {"line1": "1 37487U 93036BLQ 25337.95182481  .00047415  00000+0  61344-2 0  9998", "line2": "2 37487  73.9029 209.5569 0025242  49.3144 311.0220 14.80409078811153"}}, "geometry": {"type": "Point", "coordinates": [-159.96542809105136, -16.25729713109132]}}, {"type": "Feature", "properties": {"norad_id": 37491, "name": "COSMOS 2251 DEB", "group": "cosmos-2251-debris", "lat": 24.617386991236376, "lon": -67.53073182103839, "alt_km": 1040.1951292717022, "timestamp": "2025-12-06T07:31:40.633511+00:00", "meta": {"OBJECT_NAME": "COSMOS 2251 DEB", "OBJECT_ID": "1993-036BLU", "EPOCH": "2025-12-03T14:48:31.500000", "MEAN_MOTION": 13.75236476, "ECCENTRICITY": 0.03180692, "INCLINATION": 73.9058, "RA_OF_ASC_NODE": 289.3863, "ARG_OF_PERICENTER": 284.0782, "MEAN_ANOMALY": 72.518, "EPHEMERIS_TYPE": 0, "CLASSIFICATION_TYPE": "U", "NORAD_CAT_ID": 37491, "ELEMENT_SET_NO": 999, "REV_AT_EPOCH": 55621, "BSTAR": 0.0021635807, "MEAN_MOTION_DOT": 2.973e-05, "MEAN_MOTION_DDOT": 0}, "tle": {"line1": "1 37491U 93036BLU 25337.61703125  .00002973  00000+0  21636-2 0  9990", "line2": "2 37491  73.9058 289.3863 0318069 284.0782  72.5180 13.75236476556211"}}, "geometry": {"type": "Point", "coordinates": [-67.53073182103839, 24.617386991236376]}}, {"type": "Feature", "properties": {"norad_id": 37498, "name": "COSMOS 2251 DEB", "group": "cosmos-2251-debris", "lat": 31.4672361978818, "lon": -153.86277361409478, "alt_km": 715.103903224448, "timestamp": "2025-12-06T07:31:40.633521+00:00", "meta": {"OBJECT_NAME": "COSMOS 2251 DEB", "OBJECT_ID": "1993-036BMB", "EPOCH": "2025-12-02T07:38:53.705760", "MEAN_MOTION": 14.54689112, "ECCENTRICITY": 0.00134342, "INCLINATION": 74.038, "RA_OF_ASC_NODE": 203.6034, "ARG_OF_PERICENTER": 264.7495, "MEAN_ANOMALY": 95.2135, "EPHEMERIS_TYPE": 0, "CLASSIFICATION_TYPE": "U", "NORAD_CAT_ID": 37498, "ELEMENT_SET_NO": 999, "REV_AT_EPOCH": 65203, "BSTAR": 0.00080152077, "MEAN_MOTION_DOT": 3.406e-05, "MEAN_MOTION_DDOT": 0}, "tle": {"line1": "1 37498U 93036BMB 25336.31867715  .00003406  00000+0  80152-3 0  9990", "line2": "2 37498  74.0380 203.6034 0013434 264.7495  95.2135 14.54689112652037"}}, "geometry": {"type": "Point", "coordinates": [-153.86277361409478, 31.4672361978818]}}, {"type": "Feature", "properties": {"norad_id": 37499, "name": "COSMOS 2251 DEB", "group": "cosmos-2251-debris", "lat": -3.3970317629089646, "lon": -27.017721989008614, "alt_km": 769.4479641953649, "timestamp": "2025-12-06T07:31:40.633531+00:00", "meta": {"OBJECT_NAME": "COSMOS 2251 DEB", "OBJECT_ID": "1993-036BMC", "EPOCH": "2025-12-05T06:26:07.747872", "MEAN_MOTION": 14.34331053, "ECCENTRICITY": 0.00266878, "INCLINATION": 74.0375, "RA_OF_ASC_NODE": 335.869, "ARG_OF_PERICENTER": 54.1527, "MEAN_ANOMALY": 306.2098, "EPHEMERIS_TYPE": 0, "CLASSIFICATION_TYPE": "U", "NORAD_CAT_ID": 37499, "ELEMENT_SET_NO": 999, "REV_AT_EPOCH": 85042, "BSTAR": 0.00027954752, "MEAN_MOTION_DOT": 7.63e-06, "MEAN_MOTION_DDOT": 0}, "tle": {"line1": "1 37499U 93036BMC 25339.26814523  .00000763  00000+0  27955-3 0  9992", "line2": "2 37499  74.0375 335.8690 0026687  54.1527 306.2098 14.34331053850421"}}, "geometry": {"type": "Point", "coordinates": [-27.017721989008614, -3.3970317629089646]}}, {"type": "Feature", "properties": {"norad_id": 37528, "name": "COSMOS 2251 DEB", "group": "cosmos-2251-debris", "lat": 39.32228900861062, "lon": -59.347053083442624, "alt_km": 732.7624664507139, "timestamp": "2025-12-06T07:31:40.633541+00:00", "meta": {"OBJECT_NAME": "COSMOS 2251 DEB", "OBJECT_ID": "1993-036BNH", "EPOCH": "2025-12-03T17:38:33.606816", "MEAN_MOTION": 14.50464938, "ECCENTRICITY": 0.00209786, "INCLINATION": 74.0361, "RA_OF_ASC_NODE": 139.0576, "ARG_OF_PERICENTER": 288.0784, "MEAN_ANOMALY": 71.8091, "EPHEMERIS_TYPE": 0, "CLASSIFICATION_TYPE": "U", "NORAD_CAT_ID": 37528, "ELEMENT_SET_NO": 999, "REV_AT_EPOCH": 85800, "BSTAR": 0.00065341092, "MEAN_MOTION_DOT": 2.535e-05, "MEAN_MOTION_DDOT": 0}, "tle": {"line1": "1 37528U 93036BNH 25337.73511119  .00002535  00000+0  65341-3 0  9990", "line2": "2 37528  74.0361 139.0576 0020978 288.0784  71.8091 14.50464938858003"}}, "geometry": {"type": "Point", "coordinates": [-59.347053083442624, 39.32228900861062]}}]}